{
  "type": "FeatureCollection",
  "features": [
    {
      "type": "Feature",
      "properties": {
        "norad_id": 26766,
        "name": "INTELSAT 10 (IS-10)",
        "group": "intelsat",
        "lat": -8.624236098269966,
        "lon": -23.115308391384772,
        "alt_km": 36104.16706636582,
        "timestamp": "2025-12-22T09:53:37.073674+00:00",
        "meta_object_name": "INTELSAT 10 (IS-10)",
        "meta_object_id": "2001-019A",
        "meta_epoch": "2025-12-21T17:53:39.051168",
        "meta_mean_motion": 0.99073842,
        "meta_eccentricity": 0.0007736,
        "meta_inclination": 8.6495,
        "meta_ra_of_asc_node": 61.0661,
        "meta_arg_of_pericenter": 228.4282,
        "meta_mean_anomaly": 169.4863,
        "meta_ephemeris_type": 0,
        "meta_classification_type": "U",
        "meta_norad_cat_id": 26766,
        "meta_element_set_no": 999,
        "meta_rev_at_epoch": 4382,
        "meta_bstar": 0,
        "meta_mean_motion_dot": -7.1e-07,
        "meta_mean_motion_ddot": 0,
        "tle_line1": "1 26766U 01019A   25355.74559087 -.00000071  00000+0  00000+0 0  9990",
        "tle_line2": "2 26766   8.6495  61.0661 0007736 228.4282 169.4863  0.99073842 43828"
      },
      "geometry": {
        "type": "Point",
        "coordinates": [
          -23.115308391384772,
          -8.624236098269966
        ]
      }
    },
    {
      "type": "Feature",
      "properties": {
        "norad_id": 26900,
        "name": "INTELSAT 902 (IS-902)",
        "group": "intelsat",
        "lat": 5.122075914031828,
        "lon": -170.47794825265703,
        "alt_km": 35781.29792253334,
        "timestamp": "2025-12-22T09:53:37.073698+00:00",
        "meta_object_name": "INTELSAT 902 (IS-902)",
        "meta_object_id": "2001-039A",
        "meta_epoch": "2025-12-15T13:09:02.081664",
        "meta_mean_motion": 1.0027087,
        "meta_eccentricity": 0.00045028,
        "meta_inclination": 5.6536,
        "meta_ra_of_asc_node": 74.0372,
        "meta_arg_of_pericenter": 189.6359,
        "meta_mean_anomaly": 327.9329,
        "meta_ephemeris_type": 0,
        "meta_classification_type": "U",
        "meta_norad_cat_id": 26900,
        "meta_element_set_no": 999,
        "meta_rev_at_epoch": 8885,
        "meta_bstar": 0,
        "meta_mean_motion_dot": -2.65e-06,
        "meta_mean_motion_ddot": 0,
        "tle_line1": "1 26900U 01039A   25349.54794076 -.00000265  00000+0  00000+0 0  9997",
        "tle_line2": "2 26900   5.6536  74.0372 0004502 189.6359 327.9329  1.00270870 88858"
      },
      "geometry": {
        "type": "Point",
        "coordinates": [
          -170.47794825265703,
          5.122075914031828
        ]
      }
    },
    {
      "type": "Feature",
      "properties": {
        "norad_id": 27380,
        "name": "INTELSAT 904 (IS-904)",
        "group": "intelsat",
        "lat": 4.428202816509978,
        "lon": -151.72521999962166,
        "alt_km": 35789.040960995924,
        "timestamp": "2025-12-22T09:53:37.073714+00:00",
        "meta_object_name": "INTELSAT 904 (IS-904)",
        "meta_object_id": "2002-007A",
        "meta_epoch": "2025-12-22T02:44:30.513120",
        "meta_mean_motion": 1.00270383,
        "meta_eccentricity": 0.000192,
        "meta_inclination": 6.4765,
        "meta_ra_of_asc_node": 71.3245,
        "meta_arg_of_pericenter": 249.6541,
        "meta_mean_anomaly": 139.5626,
        "meta_ephemeris_type": 0,
        "meta_classification_type": "U",
        "meta_norad_cat_id": 27380,
        "meta_element_set_no": 999,
        "meta_rev_at_epoch": 4999,
        "meta_bstar": 0,
        "meta_mean_motion_dot": -2.08e-06,
        "meta_mean_motion_ddot": 0,
        "tle_line1": "1 27380U 02007A   25356.11424205 -.00000208  00000+0  00000+0 0  9998",
        "tle_line2": "2 27380   6.4765  71.3245 0001920 249.6541 139.5626  1.00270383 49992"
      },
      "geometry": {
        "type": "Point",
        "coordinates": [
          -151.72521999962166,
          4.428202816509978
        ]
      }
    },
    {
      "type": "Feature",
      "properties": {
        "norad_id": 27426,
        "name": "DIRECTV 5 (TEMPO 1)",
        "group": "intelsat",
        "lat": 3.5058389659393647,
        "lon": 129.39671358743323,
        "alt_km": 35796.89812763297,
        "timestamp": "2025-12-22T09:53:37.073727+00:00",
        "meta_object_name": "DIRECTV 5 (TEMPO 1)",
        "meta_object_id": "2002-023A",
        "meta_epoch": "2025-12-21T16:05:53.587968",
        "meta_mean_motion": 1.00271761,
        "meta_eccentricity": 0.0003158,
        "meta_inclination": 4.4235,
        "meta_ra_of_asc_node": 77.5485,
        "meta_arg_of_pericenter": 199.36,
        "meta_mean_anomaly": 304.9323,
        "meta_ephemeris_type": 0,
        "meta_classification_type": "U",
        "meta_norad_cat_id": 27426,
        "meta_element_set_no": 999,
        "meta_rev_at_epoch": 8634,
        "meta_bstar": 0,
        "meta_mean_motion_dot": -3.8e-07,
        "meta_mean_motion_ddot": 0,
        "tle_line1": "1 27426U 02023A   25355.67075912 -.00000038  00000+0  00000+0 0  9995",
        "tle_line2": "2 27426   4.4235  77.5485 0003158 199.3600 304.9323  1.00271761 86342"
      },
      "geometry": {
        "type": "Point",
        "coordinates": [
          129.39671358743323,
          3.5058389659393647
        ]
      }
    },
    {
      "type": "Feature",
      "properties": {
        "norad_id": 27438,
        "name": "INTELSAT 905 (IS-905)",
        "group": "intelsat",
        "lat": 3.2178648890960813,
        "lon": 102.26024648242014,
        "alt_km": 35796.60779995113,
        "timestamp": "2025-12-22T09:53:37.073740+00:00",
        "meta_object_name": "INTELSAT 905 (IS-905)",
        "meta_object_id": "2002-027A",
        "meta_epoch": "2025-12-21T11:38:50.085024",
        "meta_mean_motion": 1.00272793,
        "meta_eccentricity": 0.00026882,
        "meta_inclination": 6.3061,
        "meta_ra_of_asc_node": 71.9555,
        "meta_arg_of_pericenter": 203.6165,
        "meta_mean_anomaly": 212.2349,
        "meta_ephemeris_type": 0,
        "meta_classification_type": "U",
        "meta_norad_cat_id": 27438,
        "meta_element_set_no": 999,
        "meta_rev_at_epoch": 4958,
        "meta_bstar": 0,
        "meta_mean_motion_dot": 1.12e-06,
        "meta_mean_motion_ddot": 0,
        "tle_line1": "1 27438U 02027A   25355.48530191  .00000112  00000+0  00000+0 0  9998",
        "tle_line2": "2 27438   6.3061  71.9555 0002688 203.6165 212.2349  1.00272793 49581"
      },
      "geometry": {
        "type": "Point",
        "coordinates": [
          102.26024648242014,
          3.2178648890960813
        ]
      }
    },
    {
      "type": "Feature",
      "properties": {
        "norad_id": 27445,
        "name": "GALAXY 3C (G-3C)",
        "group": "intelsat",
        "lat": 2.9810720230727954,
        "lon": 144.72161702951155,
        "alt_km": 35781.25811804107,
        "timestamp": "2025-12-22T09:53:37.073752+00:00",
        "meta_object_name": "GALAXY 3C (G-3C)",
        "meta_object_id": "2002-030A",
        "meta_epoch": "2025-12-21T23:01:07.688064",
        "meta_mean_motion": 1.00271811,
        "meta_eccentricity": 0.000109,
        "meta_inclination": 3.2853,
        "meta_ra_of_asc_node": 80.4094,
        "meta_arg_of_pericenter": 78.2982,
        "meta_mean_anomaly": 182.4883,
        "meta_ephemeris_type": 0,
        "meta_classification_type": "U",
        "meta_norad_cat_id": 27445,
        "meta_element_set_no": 999,
        "meta_rev_at_epoch": 4471,
        "meta_bstar": 0,
        "meta_mean_motion_dot": -1.33e-06,
        "meta_mean_motion_ddot": 0,
        "tle_line1": "1 27445U 02030A   25355.95911676 -.00000133  00000+0  00000+0 0  9997",
        "tle_line2": "2 27445   3.2853  80.4094 0001090  78.2982 182.4883  1.00271811 44717"
      },
      "geometry": {
        "type": "Point",
        "coordinates": [
          144.72161702951155,
          2.9810720230727954
        ]
      }
    },
    {
      "type": "Feature",
      "properties": {
        "norad_id": 27513,
        "name": "INTELSAT 906 (IS-906)",
        "group": "intelsat",
        "lat": -4.042092290834255,
        "lon": -56.32982367344043,
        "alt_km": 35762.75398562568,
        "timestamp": "2025-12-22T09:53:37.073764+00:00",
        "meta_object_name": "INTELSAT 906 (IS-906)",
        "meta_object_id": "2002-041A",
        "meta_epoch": "2025-12-21T20:19:33.988224",
        "meta_mean_motion": 1.00273099,
        "meta_eccentricity": 0.0006306,
        "meta_inclination": 5.3527,
        "meta_ra_of_asc_node": 75.1232,
        "meta_arg_of_pericenter": 200.0655,
        "meta_mean_anomaly": 184.499,
        "meta_ephemeris_type": 0,
        "meta_classification_type": "U",
        "meta_norad_cat_id": 27513,
        "meta_element_set_no": 999,
        "meta_rev_at_epoch": 8525,
        "meta_bstar": 0,
        "meta_mean_motion_dot": 3.1e-07,
        "meta_mean_motion_ddot": 0,
        "tle_line1": "1 27513U 02041A   25355.84692116  .00000031  00000+0  00000+0 0  9994",
        "tle_line2": "2 27513   5.3527  75.1232 0006306 200.0655 184.4990  1.00273099 85251"
      },
      "geometry": {
        "type": "Point",
        "coordinates": [
          -56.32982367344043,
          -4.042092290834255
        ]
      }
    }
  ]
}